[
    {
        "Altitude(m)": 710339.3322778133,
        "Argument of Periapsis(deg)": 0.010251109067964361,
        "Eccentricity": 0.0,
        "Inclination(deg)": 45.0,
        "Latitude(deg)": -26.410652190614705,
        "Longitude(deg)": -130.29516310959013,
        "Mean Anomaly(deg)": 321.2889949827328,
        "RAAN(deg)": -0.009676747312383542,
        "Satellite Name": "Constellation 1 19",
        "Satellite Number": 19,
        "Semi-Major Axis(m)": 7083131.272910544,
        "Time(s)": 171
    },
    {
        "Altitude(m)": 710325.4810875799,
        "Argument of Periapsis(deg)": 0.010311057074209765,
        "Eccentricity": 0.0,
        "Inclination(deg)": 45.0,
        "Latitude(deg)": -26.373194918265593,
        "Longitude(deg)": -130.24601143178683,
        "Mean Anomaly(deg)": 321.3496961229827,
        "RAAN(deg)": -0.009733336477953035,
        "Satellite Name": "Constellation 1 19",
        "Satellite Number": 19,
        "Semi-Major Axis(m)": 7083131.272910544,
        "Time(s)": 172
    },
    {
        "Altitude(m)": 710311.6306032967,
        "Argument of Periapsis(deg)": 0.010371005080455171,
        "Eccentricity": 0.0,
        "Inclination(deg)": 45.0,
        "Latitude(deg)": -26.335717571425587,
        "Longitude(deg)": -130.19689394959525,
        "Mean Anomaly(deg)": 321.4103972632326,
        "RAAN(deg)": -0.009789925643522528,
        "Satellite Name": "Constellation 1 19",
        "Satellite Number": 19,
        "Semi-Major Axis(m)": 7083131.272910544,
        "Time(s)": 173
    },
    {
        "Altitude(m)": 710297.780872468,
        "Argument of Periapsis(deg)": 0.010430953086700577,
        "Eccentricity": 0.0,
        "Inclination(deg)": 45.0,
        "Latitude(deg)": -26.298220195010337,
        "Longitude(deg)": -130.14781060288368,
        "Mean Anomaly(deg)": 321.47109840348253,
        "RAAN(deg)": -0.009846514809092023,
        "Satellite Name": "Constellation 1 19",
        "Satellite Number": 19,
        "Semi-Major Axis(m)": 7083131.272910544,
        "Time(s)": 174
    },
    {
        "Altitude(m)": 710283.9319426022,
        "Argument of Periapsis(deg)": 0.010490901092945983,
        "Eccentricity": 0.0,
        "Inclination(deg)": 45.0,
        "Latitude(deg)": -26.26070283387024,
        "Longitude(deg)": -130.0987613315137,
        "Mean Anomaly(deg)": 321.53179954373235,
        "RAAN(deg)": -0.009903103974661516,
        "Satellite Name": "Constellation 1 19",
        "Satellite Number": 19,
        "Semi-Major Axis(m)": 7083131.272910544,
        "Time(s)": 175
    },
    {
        "Altitude(m)": 710270.0838611841,
        "Argument of Periapsis(deg)": 0.010550849099191389,
        "Eccentricity": 0.0,
        "Inclination(deg)": 45.0,
        "Latitude(deg)": -26.22316553279055,
        "Longitude(deg)": -130.04974607534086,
        "Mean Anomaly(deg)": 321.59250068398234,
        "RAAN(deg)": -0.009959693140231011,
        "Satellite Name": "Constellation 1 19",
        "Satellite Number": 19,
        "Semi-Major Axis(m)": 7083131.272910544,
        "Time(s)": 176
    },
    {
        "Altitude(m)": 710256.2366756853,
        "Argument of Periapsis(deg)": 0.010610797105436795,
        "Eccentricity": 0.0,
        "Inclination(deg)": 45.0,
        "Latitude(deg)": -26.185608336491565,
        "Longitude(deg)": -130.00076477421496,
        "Mean Anomaly(deg)": 321.6532018242322,
        "RAAN(deg)": -0.010016282305800508,
        "Satellite Name": "Constellation 1 19",
        "Satellite Number": 19,
        "Semi-Major Axis(m)": 7083131.272910544,
        "Time(s)": 177
    },
    {
        "Altitude(m)": 710242.3904335541,
        "Argument of Periapsis(deg)": 0.0106707451116822,
        "Eccentricity": 0.0,
        "Inclination(deg)": 45.0,
        "Latitude(deg)": -26.148031289628456,
        "Longitude(deg)": -129.9518175360774,
        "Mean Anomaly(deg)": 321.7139029644821,
        "RAAN(deg)": -0.010072871471370001,
        "Satellite Name": "Constellation 1 19",
        "Satellite Number": 19,
        "Semi-Major Axis(m)": 7083131.272910544,
        "Time(s)": 178
    },
    {
        "Altitude(m)": 710228.5451822403,
        "Argument of Periapsis(deg)": 0.010730693117927606,
        "Eccentricity": 0.0,
        "Inclination(deg)": 45.0,
        "Latitude(deg)": -26.110434436792087,
        "Longitude(deg)": -129.9029039645732,
        "Mean Anomaly(deg)": 321.77460410473196,
        "RAAN(deg)": -0.010129460636939494,
        "Satellite Name": "Constellation 1 19",
        "Satellite Number": 19,
        "Semi-Major Axis(m)": 7083131.272910544,
        "Time(s)": 179
    },
    {
        "Altitude(m)": 710214.7009691586,
        "Argument of Periapsis(deg)": 0.01079064112417301,
        "Eccentricity": 0.0,
        "Inclination(deg)": 45.0,
        "Latitude(deg)": -26.072817822507915,
        "Longitude(deg)": -129.85402416763387,
        "Mean Anomaly(deg)": 321.8353052449819,
        "RAAN(deg)": -0.01018604980250899,
        "Satellite Name": "Constellation 1 19",
        "Satellite Number": 19,
        "Semi-Major Axis(m)": 7083131.272910544,
        "Time(s)": 180
    },
    {
        "Altitude(m)": 710200.8578417206,
        "Argument of Periapsis(deg)": 0.010850589130418416,
        "Eccentricity": 0.0,
        "Inclination(deg)": 45.0,
        "Latitude(deg)": -26.03518149123708,
        "Longitude(deg)": -129.8051780850897,
        "Mean Anomaly(deg)": 321.8960063852318,
        "RAAN(deg)": -0.010242638968078484,
        "Satellite Name": "Constellation 1 19",
        "Satellite Number": 19,
        "Semi-Major Axis(m)": 7083131.272910544,
        "Time(s)": 181
    },
    {
        "Altitude(m)": 710187.0158473167,
        "Argument of Periapsis(deg)": 0.01091053713666382,
        "Eccentricity": 0.0,
        "Inclination(deg)": 45.0,
        "Latitude(deg)": -25.997525487376034,
        "Longitude(deg)": -129.75636565676686,
        "Mean Anomaly(deg)": 321.9567075254817,
        "RAAN(deg)": -0.010299228133647979,
        "Satellite Name": "Constellation 1 19",
        "Satellite Number": 19,
        "Semi-Major Axis(m)": 7083131.272910544,
        "Time(s)": 182
    },
    {
        "Altitude(m)": 710173.1750333237,
        "Argument of Periapsis(deg)": 0.010970485142909228,
        "Eccentricity": 0.0,
        "Inclination(deg)": 45.0,
        "Latitude(deg)": -25.95984985525681,
        "Longitude(deg)": -129.70758682248783,
        "Mean Anomaly(deg)": 322.0174086657316,
        "RAAN(deg)": -0.010355817299217472,
        "Satellite Name": "Constellation 1 19",
        "Satellite Number": 19,
        "Semi-Major Axis(m)": 7083131.272910544,
        "Time(s)": 183
    },
    {
        "Altitude(m)": 710159.3354470986,
        "Argument of Periapsis(deg)": 0.011030433149154634,
        "Eccentricity": 0.0,
        "Inclination(deg)": 45.0,
        "Latitude(deg)": -25.92215463914692,
        "Longitude(deg)": -129.6588415220718,
        "Mean Anomaly(deg)": 322.0781098059815,
        "RAAN(deg)": -0.010412406464786968,
        "Satellite Name": "Constellation 1 19",
        "Satellite Number": 19,
        "Semi-Major Axis(m)": 7083131.272910544,
        "Time(s)": 184
    },
    {
        "Altitude(m)": 710145.4971359803,
        "Argument of Periapsis(deg)": 0.01109038115540004,
        "Eccentricity": 0.0,
        "Inclination(deg)": 45.0,
        "Latitude(deg)": -25.884439883249616,
        "Longitude(deg)": -129.61012986343246,
        "Mean Anomaly(deg)": 322.1388109462314,
        "RAAN(deg)": -0.010468995630356462,
        "Satellite Name": "Constellation 1 19",
        "Satellite Number": 19,
        "Semi-Major Axis(m)": 7083131.272910544,
        "Time(s)": 185
    },
    {
        "Altitude(m)": 710131.6601472979,
        "Argument of Periapsis(deg)": 0.011150329161645444,
        "Eccentricity": 0.0,
        "Inclination(deg)": 45.0,
        "Latitude(deg)": -25.84670563170443,
        "Longitude(deg)": -129.5614514501891,
        "Mean Anomaly(deg)": 322.1995120864813,
        "RAAN(deg)": -0.010525584795925956,
        "Satellite Name": "Constellation 1 19",
        "Satellite Number": 19,
        "Semi-Major Axis(m)": 7083131.272910544,
        "Time(s)": 186
    },
    {
        "Altitude(m)": 710117.8245283549,
        "Argument of Periapsis(deg)": 0.01121027716789085,
        "Eccentricity": 0.0,
        "Inclination(deg)": 45.0,
        "Latitude(deg)": -25.808951928586104,
        "Longitude(deg)": -129.51280639025026,
        "Mean Anomaly(deg)": 322.26021322673114,
        "RAAN(deg)": -0.01058217396149545,
        "Satellite Name": "Constellation 1 19",
        "Satellite Number": 19,
        "Semi-Major Axis(m)": 7083131.272910544,
        "Time(s)": 187
    },
    {
        "Altitude(m)": 710103.9903264437,
        "Argument of Periapsis(deg)": 0.011270225174136258,
        "Eccentricity": 0.0,
        "Inclination(deg)": 45.0,
        "Latitude(deg)": -25.77117881790562,
        "Longitude(deg)": -129.46419462342547,
        "Mean Anomaly(deg)": 322.32091436698107,
        "RAAN(deg)": -0.010638763127064944,
        "Satellite Name": "Constellation 1 19",
        "Satellite Number": 19,
        "Semi-Major Axis(m)": 7083131.272910544,
        "Time(s)": 188
    },
    {
        "Altitude(m)": 710090.1575888362,
        "Argument of Periapsis(deg)": 0.011330173180381662,
        "Eccentricity": 0.0,
        "Inclination(deg)": 45.0,
        "Latitude(deg)": -25.733386343610096,
        "Longitude(deg)": -129.41561608952279,
        "Mean Anomaly(deg)": 322.381615507231,
        "RAAN(deg)": -0.01069535229263444,
        "Satellite Name": "Constellation 1 19",
        "Satellite Number": 19,
        "Semi-Major Axis(m)": 7083131.272910544,
        "Time(s)": 189
    }
]